{
  "type" : "FeatureCollection",
  "name" : "heat_network_result",
  "features" : [ {
    "type" : "Feature",
    "geometry" : {
      "type" : "LineString",
      "coordinates" : [ [ 37.6344054041544, 55.69948106445311 ], [ 37.6354170560464, 55.6986147317495 ] ]
    },
    "properties" : {
      "id" : "v1_net_1",
      "object_type" : "heat_network",
      "variant_id" : "v1",
      "start_node_id" : "1",
      "end_node_id" : "5",
      "flow_tph" : 92.39,
      "diameter" : 200,
      "length" : 115.5,
      "laying_method" : "base",
      "depth_start" : null,
      "depth_end" : null,
      "cost" : 1.389232021E7
    }
  }, {
    "type" : "Feature",
    "geometry" : {
      "type" : "LineString",
      "coordinates" : [ [ 37.6354170560464, 55.6986147317495 ], [ 37.6382803042186, 55.69795678628921 ] ]
    },
    "properties" : {
      "id" : "v1_net_2",
      "object_type" : "heat_network",
      "variant_id" : "v1",
      "start_node_id" : "5",
      "end_node_id" : "7",
      "flow_tph" : 118.48,
      "diameter" : 200,
      "length" : 194.31,
      "laying_method" : "base",
      "depth_start" : null,
      "depth_end" : null,
      "cost" : 2.337030428E7
    }
  }, {
    "type" : "Feature",
    "geometry" : {
      "type" : "LineString",
      "coordinates" : [ [ 37.63863626091878, 55.69790362543136 ], [ 37.6382803042186, 55.69795678628921 ] ]
    },
    "properties" : {
      "id" : "v1_net_3",
      "object_type" : "heat_network",
      "variant_id" : "v1",
      "start_node_id" : "net_126_41",
      "end_node_id" : "7",
      "flow_tph" : 325.36,
      "diameter" : 300,
      "length" : 23.14,
      "laying_method" : "base",
      "depth_start" : null,
      "depth_end" : null,
      "cost" : 3472141.2
    }
  }, {
    "type" : "Feature",
    "geometry" : {
      "type" : "LineString",
      "coordinates" : [ [ 37.6345829261805, 55.6998544638392 ], [ 37.6363818514204, 55.700155199014695 ] ]
    },
    "properties" : {
      "id" : "v1_net_4",
      "object_type" : "heat_network",
      "variant_id" : "v1",
      "start_node_id" : "2",
      "end_node_id" : "4",
      "flow_tph" : 18.76,
      "diameter" : 100,
      "length" : 117.92,
      "laying_method" : "base",
      "depth_start" : null,
      "depth_end" : null,
      "cost" : 1.058336E7
    }
  }, {
    "type" : "Feature",
    "geometry" : {
      "type" : "LineString",
      "coordinates" : [ [ 37.64002953630141, 55.69994496673263 ], [ 37.6363818514204, 55.700155199014695 ] ]
    },
    "properties" : {
      "id" : "v1_net_5",
      "object_type" : "heat_network",
      "variant_id" : "v1",
      "start_node_id" : "108",
      "end_node_id" : "4",
      "flow_tph" : 66.46,
      "diameter" : 200,
      "length" : 230.47,
      "laying_method" : "base",
      "depth_start" : null,
      "depth_end" : null,
      "cost" : 2.771959774E7
    }
  }, {
    "type" : "Feature",
    "geometry" : {
      "type" : "LineString",
      "coordinates" : [ [ 37.6332044989075, 55.699575075115 ], [ 37.6328466024688, 55.700275760196696 ] ]
    },
    "properties" : {
      "id" : "v1_net_6",
      "object_type" : "heat_network",
      "variant_id" : "v1",
      "start_node_id" : "11",
      "end_node_id" : "3",
      "flow_tph" : 29.42,
      "diameter" : 125,
      "length" : 81.17,
      "laying_method" : "base",
      "depth_start" : null,
      "depth_end" : null,
      "cost" : 7895548.16
    }
  }, {
    "type" : "Feature",
    "geometry" : {
      "type" : "LineString",
      "coordinates" : [ [ 37.6344054041544, 55.69948106445311 ], [ 37.6332044989075, 55.699575075115 ] ]
    },
    "properties" : {
      "id" : "v1_net_7",
      "object_type" : "heat_network",
      "variant_id" : "v1",
      "start_node_id" : "1",
      "end_node_id" : "11",
      "flow_tph" : 33.5,
      "diameter" : 125,
      "length" : 76.21,
      "laying_method" : "base",
      "depth_start" : null,
      "depth_end" : null,
      "cost" : 7412985.98
    }
  }, {
    "type" : "Feature",
    "geometry" : {
      "type" : "LineString",
      "coordinates" : [ [ 37.6344054041544, 55.69948106445311 ], [ 37.632012226474316, 55.70004826125506 ] ]
    },
    "properties" : {
      "id" : "v1_net_8",
      "object_type" : "heat_network",
      "variant_id" : "v1",
      "start_node_id" : "1",
      "end_node_id" : "6",
      "flow_tph" : 15.99,
      "diameter" : 125,
      "length" : 163.14,
      "laying_method" : "base",
      "depth_start" : null,
      "depth_end" : null,
      "cost" : 1.586905634E7
    }
  }, {
    "type" : "Feature",
    "geometry" : {
      "type" : "LineString",
      "coordinates" : [ [ 37.6344054041544, 55.69948106445311 ], [ 37.632202633606305, 55.70031441743034 ] ]
    },
    "properties" : {
      "id" : "v1_net_9",
      "object_type" : "heat_network",
      "variant_id" : "v1",
      "start_node_id" : "1",
      "end_node_id" : "8",
      "flow_tph" : 18.03,
      "diameter" : 125,
      "length" : 166.65,
      "laying_method" : "base",
      "depth_start" : null,
      "depth_end" : null,
      "cost" : 1.62112961E7
    }
  }, {
    "type" : "Feature",
    "geometry" : {
      "type" : "LineString",
      "coordinates" : [ [ 37.6360932402107, 55.697296569490895 ], [ 37.6344462678961, 55.6972523917077 ] ]
    },
    "properties" : {
      "id" : "v1_net_10",
      "object_type" : "heat_network",
      "variant_id" : "v1",
      "start_node_id" : "10",
      "end_node_id" : "9",
      "flow_tph" : 34.53,
      "diameter" : 125,
      "length" : 103.65,
      "laying_method" : "base",
      "depth_start" : null,
      "depth_end" : null,
      "cost" : 1.008212336E7
    }
  }, {
    "type" : "Feature",
    "geometry" : {
      "type" : "LineString",
      "coordinates" : [ [ 37.6360932402107, 55.697296569490895 ], [ 37.6382803042186, 55.69795678628921 ] ]
    },
    "properties" : {
      "id" : "v1_net_11",
      "object_type" : "heat_network",
      "variant_id" : "v1",
      "start_node_id" : "10",
      "end_node_id" : "7",
      "flow_tph" : 139.06,
      "diameter" : 200,
      "length" : 155.88,
      "laying_method" : "base",
      "depth_start" : null,
      "depth_end" : null,
      "cost" : 1.874899866E7
    }
  }, {
    "type" : "Feature",
    "geometry" : {
      "type" : "LineString",
      "coordinates" : [ [ 37.63313932211122, 55.69865306825248 ], [ 37.6382803042186, 55.69795678628921 ] ]
    },
    "properties" : {
      "id" : "v1_net_12",
      "object_type" : "heat_network",
      "variant_id" : "v1",
      "start_node_id" : "12",
      "end_node_id" : "7",
      "flow_tph" : 40.0,
      "diameter" : 125,
      "length" : 332.32,
      "laying_method" : "base",
      "depth_start" : null,
      "depth_end" : null,
      "cost" : 3.232612427E7
    }
  }, {
    "type" : "Feature",
    "geometry" : {
      "type" : "LineString",
      "coordinates" : [ [ 37.6360932402107, 55.697296569490895 ], [ 37.6339010562985, 55.697722607233096 ] ]
    },
    "properties" : {
      "id" : "v1_net_13",
      "object_type" : "heat_network",
      "variant_id" : "v1",
      "start_node_id" : "10",
      "end_node_id" : "13",
      "flow_tph" : 19.77,
      "diameter" : 100,
      "length" : 145.73,
      "laying_method" : "base",
      "depth_start" : null,
      "depth_end" : null,
      "cost" : 1.307903158E7
    }
  }, {
    "type" : "Feature",
    "geometry" : {
      "type" : "LineString",
      "coordinates" : [ [ 37.6360932402107, 55.697296569490895 ], [ 37.6337524411436, 55.6974723292097 ] ]
    },
    "properties" : {
      "id" : "v1_net_14",
      "object_type" : "heat_network",
      "variant_id" : "v1",
      "start_node_id" : "10",
      "end_node_id" : "14",
      "flow_tph" : 51.62,
      "diameter" : 150,
      "length" : 148.44,
      "laying_method" : "base",
      "depth_start" : null,
      "depth_end" : null,
      "cost" : 1.566116346E7
    }
  }, {
    "type" : "Feature",
    "geometry" : {
      "type" : "LineString",
      "coordinates" : [ [ 37.6337524411436, 55.6974723292097 ], [ 37.63203443949898, 55.69704568983144 ] ]
    },
    "properties" : {
      "id" : "v1_net_15",
      "object_type" : "heat_network",
      "variant_id" : "v1",
      "start_node_id" : "14",
      "end_node_id" : "15",
      "flow_tph" : 31.89,
      "diameter" : 125,
      "length" : 117.97,
      "laying_method" : "base",
      "depth_start" : null,
      "depth_end" : null,
      "cost" : 1.147580001E7
    }
  }, {
    "type" : "Feature",
    "geometry" : {
      "type" : "LineString",
      "coordinates" : [ [ 37.63957055801799, 55.69866855213194 ], [ 37.64076446632709, 55.6984073918225 ] ]
    },
    "properties" : {
      "id" : "v1_net_16",
      "object_type" : "heat_network",
      "variant_id" : "v1",
      "start_node_id" : "net_124_29",
      "end_node_id" : "16",
      "flow_tph" : 76.27,
      "diameter" : 200,
      "length" : 80.48,
      "laying_method" : "base",
      "depth_start" : null,
      "depth_end" : null,
      "cost" : 9679664.51
    }
  }, {
    "type" : "Feature",
    "geometry" : {
      "type" : "LineString",
      "coordinates" : [ [ 37.638110674821775, 55.69716733424431 ], [ 37.639538146115, 55.6968518286392 ] ]
    },
    "properties" : {
      "id" : "v1_net_17",
      "object_type" : "heat_network",
      "variant_id" : "v1",
      "start_node_id" : "net_129_64",
      "end_node_id" : "17",
      "flow_tph" : 20.63,
      "diameter" : 100,
      "length" : 96.36,
      "laying_method" : "base",
      "depth_start" : null,
      "depth_end" : null,
      "cost" : 8647960.55
    }
  }, {
    "type" : "Feature",
    "geometry" : {
      "type" : "Point",
      "coordinates" : [ 37.63863626091878, 55.69790362543136 ]
    },
    "properties" : {
      "id" : "v1_chamber_1",
      "object_type" : "heat_chamber",
      "variant_id" : "v1",
      "diameter" : 125,
      "cost" : 3000000.0
    }
  }, {
    "type" : "Feature",
    "geometry" : {
      "type" : "Point",
      "coordinates" : [ 37.63957055801799, 55.69866855213194 ]
    },
    "properties" : {
      "id" : "v1_chamber_2",
      "object_type" : "heat_chamber",
      "variant_id" : "v1",
      "diameter" : 200,
      "cost" : 3000000.0
    }
  }, {
    "type" : "Feature",
    "geometry" : {
      "type" : "Point",
      "coordinates" : [ 37.638110674821775, 55.69716733424431 ]
    },
    "properties" : {
      "id" : "v1_chamber_3",
      "object_type" : "heat_chamber",
      "variant_id" : "v1",
      "diameter" : 100,
      "cost" : 3000000.0
    }
  }, {
    "type" : "Feature",
    "geometry" : null,
    "properties" : {
      "id" : "v1_summary",
      "object_type" : "variant_summary",
      "variant_id" : "v1",
      "rank" : 1,
      "construction_cost" : 2.651274764E8,
      "chamber_construction_cost" : 9000000.0,
      "existing_chamber_tie_in_count" : 2,
      "existing_chamber_tie_in_cost" : 1.0E7,
      "unconnected_penalty" : 0.0,
      "calculated_cost" : 2.651274764E8,
      "new_network_length" : 2349.34,
      "score" : 14.4716,
      "unconnected_oks_ids" : [ ]
    }
  } ]
}