{
  "type" : "FeatureCollection",
  "name" : "heat_network_result",
  "features" : [ {
    "type" : "Feature",
    "geometry" : {
      "type" : "LineString",
      "coordinates" : [ [ 37.6344054041544, 55.69948106445311 ], [ 37.63499723941941, 55.69854732611015 ] ]
    },
    "properties" : {
      "id" : "v1_net_1",
      "object_type" : "heat_network",
      "variant_id" : "v1",
      "start_node_id" : "1",
      "end_node_id" : "tn_520",
      "flow_tph" : 24.87,
      "diameter" : 125,
      "length" : 110.38,
      "laying_method" : "base",
      "depth_start" : null,
      "depth_end" : null,
      "cost" : 1.073764098E7
    }
  }, {
    "type" : "Feature",
    "geometry" : {
      "type" : "LineString",
      "coordinates" : [ [ 37.63499723941941, 55.69854732611015 ], [ 37.63855529938477, 55.697778551857105 ] ]
    },
    "properties" : {
      "id" : "v1_net_2",
      "object_type" : "heat_network",
      "variant_id" : "v1",
      "start_node_id" : "tn_520",
      "end_node_id" : "v_chamber_1",
      "flow_tph" : 24.87,
      "diameter" : 125,
      "length" : 239.46,
      "laying_method" : "base",
      "depth_start" : null,
      "depth_end" : null,
      "cost" : 2.329387398E7
    }
  }, {
    "type" : "Feature",
    "geometry" : {
      "type" : "LineString",
      "coordinates" : [ [ 37.6345829261805, 55.6998544638392 ], [ 37.63619828289581, 55.700296193631175 ] ]
    },
    "properties" : {
      "id" : "v1_net_3",
      "object_type" : "heat_network",
      "variant_id" : "v1",
      "start_node_id" : "2",
      "end_node_id" : "tn_516",
      "flow_tph" : 18.76,
      "diameter" : 100,
      "length" : 112.81,
      "laying_method" : "base",
      "depth_start" : null,
      "depth_end" : null,
      "cost" : 1.012460712E7
    }
  }, {
    "type" : "Feature",
    "geometry" : {
      "type" : "LineString",
      "coordinates" : [ [ 37.63619828289581, 55.700296193631175 ], [ 37.639824421061256, 55.69965142453975 ] ]
    },
    "properties" : {
      "id" : "v1_net_4",
      "object_type" : "heat_network",
      "variant_id" : "v1",
      "start_node_id" : "tn_516",
      "end_node_id" : "v_chamber_2",
      "flow_tph" : 66.21,
      "diameter" : 200,
      "length" : 238.95,
      "laying_method" : "base",
      "depth_start" : null,
      "depth_end" : null,
      "cost" : 2.874025758E7
    }
  }, {
    "type" : "Feature",
    "geometry" : {
      "type" : "LineString",
      "coordinates" : [ [ 37.6328466024688, 55.700275760196696 ], [ 37.63482922422454, 55.70061649943285 ] ]
    },
    "properties" : {
      "id" : "v1_net_5",
      "object_type" : "heat_network",
      "variant_id" : "v1",
      "start_node_id" : "3",
      "end_node_id" : "tn_561",
      "flow_tph" : 29.42,
      "diameter" : 125,
      "length" : 130.26,
      "laying_method" : "base",
      "depth_start" : null,
      "depth_end" : null,
      "cost" : 1.267112388E7
    }
  }, {
    "type" : "Feature",
    "geometry" : {
      "type" : "LineString",
      "coordinates" : [ [ 37.63619828289581, 55.700296193631175 ], [ 37.63482922422454, 55.70061649943285 ] ]
    },
    "properties" : {
      "id" : "v1_net_6",
      "object_type" : "heat_network",
      "variant_id" : "v1",
      "start_node_id" : "tn_516",
      "end_node_id" : "tn_561",
      "flow_tph" : 29.42,
      "diameter" : 125,
      "length" : 93.14,
      "laying_method" : "base",
      "depth_start" : null,
      "depth_end" : null,
      "cost" : 9060657.56
    }
  }, {
    "type" : "Feature",
    "geometry" : {
      "type" : "LineString",
      "coordinates" : [ [ 37.6363818514204, 55.700155199014695 ], [ 37.639704695748186, 55.69968515928546 ] ]
    },
    "properties" : {
      "id" : "v1_net_7",
      "object_type" : "heat_network",
      "variant_id" : "v1",
      "start_node_id" : "4",
      "end_node_id" : "tn_639",
      "flow_tph" : 47.7,
      "diameter" : 150,
      "length" : 215.31,
      "laying_method" : "base",
      "depth_start" : null,
      "depth_end" : null,
      "cost" : 2.271700142E7
    }
  }, {
    "type" : "Feature",
    "geometry" : {
      "type" : "LineString",
      "coordinates" : [ [ 37.639704695748186, 55.69968515928546 ], [ 37.639824421061256, 55.69965142453975 ] ]
    },
    "properties" : {
      "id" : "v1_net_8",
      "object_type" : "heat_network",
      "variant_id" : "v1",
      "start_node_id" : "tn_639",
      "end_node_id" : "v_chamber_2",
      "flow_tph" : 47.7,
      "diameter" : 150,
      "length" : 8.41,
      "laying_method" : "base",
      "depth_start" : null,
      "depth_end" : null,
      "cost" : 887331.75
    }
  }, {
    "type" : "Feature",
    "geometry" : {
      "type" : "LineString",
      "coordinates" : [ [ 37.6354170560464, 55.6986147317495 ], [ 37.6381069592065, 55.697848510664365 ] ]
    },
    "properties" : {
      "id" : "v1_net_9",
      "object_type" : "heat_network",
      "variant_id" : "v1",
      "start_node_id" : "5",
      "end_node_id" : "tn_635",
      "flow_tph" : 26.09,
      "diameter" : 125,
      "length" : 189.37,
      "laying_method" : "base",
      "depth_start" : null,
      "depth_end" : null,
      "cost" : 1.842127677E7
    }
  }, {
    "type" : "Feature",
    "geometry" : {
      "type" : "LineString",
      "coordinates" : [ [ 37.6381069592065, 55.697848510664365 ], [ 37.63855529938477, 55.697778551857105 ] ]
    },
    "properties" : {
      "id" : "v1_net_10",
      "object_type" : "heat_network",
      "variant_id" : "v1",
      "start_node_id" : "tn_635",
      "end_node_id" : "v_chamber_1",
      "flow_tph" : 26.09,
      "diameter" : 125,
      "length" : 29.24,
      "laying_method" : "base",
      "depth_start" : null,
      "depth_end" : null,
      "cost" : 2844147.37
    }
  }, {
    "type" : "Feature",
    "geometry" : {
      "type" : "LineString",
      "coordinates" : [ [ 37.632012226474316, 55.70004826125506 ], [ 37.63228207549868, 55.699363658942495 ] ]
    },
    "properties" : {
      "id" : "v1_net_11",
      "object_type" : "heat_network",
      "variant_id" : "v1",
      "start_node_id" : "6",
      "end_node_id" : "tn_731",
      "flow_tph" : 15.99,
      "diameter" : 125,
      "length" : 78.06,
      "laying_method" : "base",
      "depth_start" : null,
      "depth_end" : null,
      "cost" : 7593537.04
    }
  }, {
    "type" : "Feature",
    "geometry" : {
      "type" : "LineString",
      "coordinates" : [ [ 37.63362417750981, 55.69882737776554 ], [ 37.63228207549868, 55.699363658942495 ] ]
    },
    "properties" : {
      "id" : "v1_net_12",
      "object_type" : "heat_network",
      "variant_id" : "v1",
      "start_node_id" : "tn_549",
      "end_node_id" : "tn_731",
      "flow_tph" : 15.99,
      "diameter" : 125,
      "length" : 103.34,
      "laying_method" : "base",
      "depth_start" : null,
      "depth_end" : null,
      "cost" : 1.005257637E7
    }
  }, {
    "type" : "Feature",
    "geometry" : {
      "type" : "LineString",
      "coordinates" : [ [ 37.63362417750981, 55.69882737776554 ], [ 37.63855529938477, 55.697778551857105 ] ]
    },
    "properties" : {
      "id" : "v1_net_13",
      "object_type" : "heat_network",
      "variant_id" : "v1",
      "start_node_id" : "tn_549",
      "end_node_id" : "v_chamber_1",
      "flow_tph" : 20.07,
      "diameter" : 125,
      "length" : 331.22,
      "laying_method" : "base",
      "depth_start" : null,
      "depth_end" : null,
      "cost" : 3.221906671E7
    }
  }, {
    "type" : "Feature",
    "geometry" : {
      "type" : "LineString",
      "coordinates" : [ [ 37.6382803042186, 55.69795678628921 ], [ 37.63863626091878, 55.69790362543136 ] ]
    },
    "properties" : {
      "id" : "v1_net_14",
      "object_type" : "heat_network",
      "variant_id" : "v1",
      "start_node_id" : "7",
      "end_node_id" : "v_chamber_7",
      "flow_tph" : 27.82,
      "diameter" : 125,
      "length" : 23.14,
      "laying_method" : "base",
      "depth_start" : null,
      "depth_end" : null,
      "cost" : 2251353.37
    }
  }, {
    "type" : "Feature",
    "geometry" : {
      "type" : "LineString",
      "coordinates" : [ [ 37.632202633606305, 55.70031441743034 ], [ 37.63287139930861, 55.70081860480437 ] ]
    },
    "properties" : {
      "id" : "v1_net_15",
      "object_type" : "heat_network",
      "variant_id" : "v1",
      "start_node_id" : "8",
      "end_node_id" : "tn_545",
      "flow_tph" : 18.03,
      "diameter" : 125,
      "length" : 70.11,
      "laying_method" : "base",
      "depth_start" : null,
      "depth_end" : null,
      "cost" : 6820411.05
    }
  }, {
    "type" : "Feature",
    "geometry" : {
      "type" : "LineString",
      "coordinates" : [ [ 37.63287139930861, 55.70081860480437 ], [ 37.63462194389592, 55.700639481460456 ] ]
    },
    "properties" : {
      "id" : "v1_net_16",
      "object_type" : "heat_network",
      "variant_id" : "v1",
      "start_node_id" : "tn_545",
      "end_node_id" : "tn_546",
      "flow_tph" : 18.03,
      "diameter" : 125,
      "length" : 111.82,
      "laying_method" : "base",
      "depth_start" : null,
      "depth_end" : null,
      "cost" : 1.087742511E7
    }
  }, {
    "type" : "Feature",
    "geometry" : {
      "type" : "LineString",
      "coordinates" : [ [ 37.63619828289581, 55.700296193631175 ], [ 37.63462194389592, 55.700639481460456 ] ]
    },
    "properties" : {
      "id" : "v1_net_17",
      "object_type" : "heat_network",
      "variant_id" : "v1",
      "start_node_id" : "tn_516",
      "end_node_id" : "tn_546",
      "flow_tph" : 18.03,
      "diameter" : 125,
      "length" : 106.19,
      "laying_method" : "base",
      "depth_start" : null,
      "depth_end" : null,
      "cost" : 1.032989765E7
    }
  }, {
    "type" : "Feature",
    "geometry" : {
      "type" : "LineString",
      "coordinates" : [ [ 37.6344462678961, 55.6972523917077 ], [ 37.63622506703675, 55.69712300144558 ] ]
    },
    "properties" : {
      "id" : "v1_net_18",
      "object_type" : "heat_network",
      "variant_id" : "v1",
      "start_node_id" : "9",
      "end_node_id" : "tn_691",
      "flow_tph" : 34.53,
      "diameter" : 125,
      "length" : 112.74,
      "laying_method" : "base",
      "depth_start" : null,
      "depth_end" : null,
      "cost" : 1.096672246E7
    }
  }, {
    "type" : "Feature",
    "geometry" : {
      "type" : "LineString",
      "coordinates" : [ [ 37.63622506703675, 55.69712300144558 ], [ 37.63742777021239, 55.69776366625402 ] ]
    },
    "properties" : {
      "id" : "v1_net_19",
      "object_type" : "heat_network",
      "variant_id" : "v1",
      "start_node_id" : "tn_691",
      "end_node_id" : "tn_928",
      "flow_tph" : 54.26,
      "diameter" : 150,
      "length" : 103.92,
      "laying_method" : "base",
      "depth_start" : null,
      "depth_end" : null,
      "cost" : 1.096477671E7
    }
  }, {
    "type" : "Feature",
    "geometry" : {
      "type" : "LineString",
      "coordinates" : [ [ 37.63742777021239, 55.69776366625402 ], [ 37.6384200336835, 55.69757256514314 ] ]
    },
    "properties" : {
      "id" : "v1_net_20",
      "object_type" : "heat_network",
      "variant_id" : "v1",
      "start_node_id" : "tn_928",
      "end_node_id" : "v_chamber_12",
      "flow_tph" : 87.4,
      "diameter" : 200,
      "length" : 65.9,
      "laying_method" : "base",
      "depth_start" : null,
      "depth_end" : null,
      "cost" : 7926130.14
    }
  }, {
    "type" : "Feature",
    "geometry" : {
      "type" : "LineString",
      "coordinates" : [ [ 37.6360932402107, 55.697296569490895 ], [ 37.63742777021239, 55.69776366625402 ] ]
    },
    "properties" : {
      "id" : "v1_net_21",
      "object_type" : "heat_network",
      "variant_id" : "v1",
      "start_node_id" : "10",
      "end_node_id" : "tn_928",
      "flow_tph" : 33.14,
      "diameter" : 125,
      "length" : 98.69,
      "laying_method" : "base",
      "depth_start" : null,
      "depth_end" : null,
      "cost" : 9600233.38
    }
  }, {
    "type" : "Feature",
    "geometry" : {
      "type" : "LineString",
      "coordinates" : [ [ 37.6332044989075, 55.699575075115 ], [ 37.63362417750981, 55.69882737776554 ] ]
    },
    "properties" : {
      "id" : "v1_net_22",
      "object_type" : "heat_network",
      "variant_id" : "v1",
      "start_node_id" : "11",
      "end_node_id" : "tn_549",
      "flow_tph" : 4.08,
      "diameter" : 100,
      "length" : 87.3,
      "laying_method" : "base",
      "depth_start" : null,
      "depth_end" : null,
      "cost" : 7835098.65
    }
  }, {
    "type" : "Feature",
    "geometry" : {
      "type" : "LineString",
      "coordinates" : [ [ 37.63313932211122, 55.69865306825248 ], [ 37.633492476737416, 55.69865238767622 ] ]
    },
    "properties" : {
      "id" : "v1_net_23",
      "object_type" : "heat_network",
      "variant_id" : "v1",
      "start_node_id" : "12",
      "end_node_id" : "tn_750",
      "flow_tph" : 40.0,
      "diameter" : 125,
      "length" : 22.2,
      "laying_method" : "base",
      "depth_start" : null,
      "depth_end" : null,
      "cost" : 2159378.08
    }
  }, {
    "type" : "Feature",
    "geometry" : {
      "type" : "LineString",
      "coordinates" : [ [ 37.633492476737416, 55.69865238767622 ], [ 37.63457675382231, 55.698449852011095 ] ]
    },
    "properties" : {
      "id" : "v1_net_24",
      "object_type" : "heat_network",
      "variant_id" : "v1",
      "start_node_id" : "tn_750",
      "end_node_id" : "tn_757",
      "flow_tph" : 40.0,
      "diameter" : 125,
      "length" : 71.79,
      "laying_method" : "base",
      "depth_start" : null,
      "depth_end" : null,
      "cost" : 6983065.35
    }
  }, {
    "type" : "Feature",
    "geometry" : {
      "type" : "LineString",
      "coordinates" : [ [ 37.63457675382231, 55.698449852011095 ], [ 37.63846183901414, 55.69763853262273 ] ]
    },
    "properties" : {
      "id" : "v1_net_25",
      "object_type" : "heat_network",
      "variant_id" : "v1",
      "start_node_id" : "tn_757",
      "end_node_id" : "v_chamber_10",
      "flow_tph" : 40.0,
      "diameter" : 125,
      "length" : 260.37,
      "laying_method" : "base",
      "depth_start" : null,
      "depth_end" : null,
      "cost" : 2.532774015E7
    }
  }, {
    "type" : "Feature",
    "geometry" : {
      "type" : "LineString",
      "coordinates" : [ [ 37.6339010562985, 55.697722607233096 ], [ 37.63484483631958, 55.6983149486139 ] ]
    },
    "properties" : {
      "id" : "v1_net_26",
      "object_type" : "heat_network",
      "variant_id" : "v1",
      "start_node_id" : "13",
      "end_node_id" : "tn_698",
      "flow_tph" : 19.77,
      "diameter" : 100,
      "length" : 88.69,
      "laying_method" : "base",
      "depth_start" : null,
      "depth_end" : null,
      "cost" : 7959817.21
    }
  }, {
    "type" : "Feature",
    "geometry" : {
      "type" : "LineString",
      "coordinates" : [ [ 37.63484483631958, 55.6983149486139 ], [ 37.63525674390234, 55.698293205745074 ] ]
    },
    "properties" : {
      "id" : "v1_net_27",
      "object_type" : "heat_network",
      "variant_id" : "v1",
      "start_node_id" : "tn_698",
      "end_node_id" : "tn_702",
      "flow_tph" : 19.77,
      "diameter" : 100,
      "length" : 26.0,
      "laying_method" : "base",
      "depth_start" : null,
      "depth_end" : null,
      "cost" : 2333872.4
    }
  }, {
    "type" : "Feature",
    "geometry" : {
      "type" : "LineString",
      "coordinates" : [ [ 37.63525674390234, 55.698293205745074 ], [ 37.63846183901414, 55.69763853262273 ] ]
    },
    "properties" : {
      "id" : "v1_net_28",
      "object_type" : "heat_network",
      "variant_id" : "v1",
      "start_node_id" : "tn_702",
      "end_node_id" : "v_chamber_10",
      "flow_tph" : 19.77,
      "diameter" : 100,
      "length" : 214.24,
      "laying_method" : "base",
      "depth_start" : null,
      "depth_end" : null,
      "cost" : 1.922771679E7
    }
  }, {
    "type" : "Feature",
    "geometry" : {
      "type" : "LineString",
      "coordinates" : [ [ 37.6337524411436, 55.6974723292097 ], [ 37.634721983621276, 55.69734496764256 ] ]
    },
    "properties" : {
      "id" : "v1_net_29",
      "object_type" : "heat_network",
      "variant_id" : "v1",
      "start_node_id" : "14",
      "end_node_id" : "tn_683",
      "flow_tph" : 19.73,
      "diameter" : 100,
      "length" : 62.57,
      "laying_method" : "base",
      "depth_start" : null,
      "depth_end" : null,
      "cost" : 5615731.94
    }
  }, {
    "type" : "Feature",
    "geometry" : {
      "type" : "LineString",
      "coordinates" : [ [ 37.634721983621276, 55.69734496764256 ], [ 37.63622506703675, 55.69712300144558 ] ]
    },
    "properties" : {
      "id" : "v1_net_30",
      "object_type" : "heat_network",
      "variant_id" : "v1",
      "start_node_id" : "tn_683",
      "end_node_id" : "tn_691",
      "flow_tph" : 19.73,
      "diameter" : 100,
      "length" : 97.66,
      "laying_method" : "base",
      "depth_start" : null,
      "depth_end" : null,
      "cost" : 8764843.82
    }
  }, {
    "type" : "Feature",
    "geometry" : {
      "type" : "LineString",
      "coordinates" : [ [ 37.63203443949898, 55.69704568983144 ], [ 37.63218705922651, 55.6962670397646 ] ]
    },
    "properties" : {
      "id" : "v1_net_31",
      "object_type" : "heat_network",
      "variant_id" : "v1",
      "start_node_id" : "15",
      "end_node_id" : "tn_311",
      "flow_tph" : 31.89,
      "diameter" : 125,
      "length" : 87.19,
      "laying_method" : "base",
      "depth_start" : null,
      "depth_end" : null,
      "cost" : 8481855.37
    }
  }, {
    "type" : "Feature",
    "geometry" : {
      "type" : "LineString",
      "coordinates" : [ [ 37.63218705922651, 55.6962670397646 ], [ 37.63313042076733, 55.69581869456898 ] ]
    },
    "properties" : {
      "id" : "v1_net_32",
      "object_type" : "heat_network",
      "variant_id" : "v1",
      "start_node_id" : "tn_311",
      "end_node_id" : "tn_322",
      "flow_tph" : 31.89,
      "diameter" : 125,
      "length" : 77.5,
      "laying_method" : "base",
      "depth_start" : null,
      "depth_end" : null,
      "cost" : 7539199.32
    }
  }, {
    "type" : "Feature",
    "geometry" : {
      "type" : "LineString",
      "coordinates" : [ [ 37.63459302802522, 55.695402918613595 ], [ 37.63313042076733, 55.69581869456898 ] ]
    },
    "properties" : {
      "id" : "v1_net_33",
      "object_type" : "heat_network",
      "variant_id" : "v1",
      "start_node_id" : "tn_257",
      "end_node_id" : "tn_322",
      "flow_tph" : 31.89,
      "diameter" : 125,
      "length" : 102.93,
      "laying_method" : "base",
      "depth_start" : null,
      "depth_end" : null,
      "cost" : 1.001278223E7
    }
  }, {
    "type" : "Feature",
    "geometry" : {
      "type" : "LineString",
      "coordinates" : [ [ 37.63459302802522, 55.695402918613595 ], [ 37.636558586489386, 55.694971490891284 ] ]
    },
    "properties" : {
      "id" : "v1_net_34",
      "object_type" : "heat_network",
      "variant_id" : "v1",
      "start_node_id" : "tn_257",
      "end_node_id" : "112",
      "flow_tph" : 31.89,
      "diameter" : 125,
      "length" : 132.56,
      "laying_method" : "base",
      "depth_start" : null,
      "depth_end" : null,
      "cost" : 1.289520042E7
    }
  }, {
    "type" : "Feature",
    "geometry" : {
      "type" : "LineString",
      "coordinates" : [ [ 37.64076446632709, 55.6984073918225 ], [ 37.63957055801799, 55.69866855213194 ] ]
    },
    "properties" : {
      "id" : "v1_net_35",
      "object_type" : "heat_network",
      "variant_id" : "v1",
      "start_node_id" : "16",
      "end_node_id" : "107",
      "flow_tph" : 76.27,
      "diameter" : 200,
      "length" : 80.48,
      "laying_method" : "base",
      "depth_start" : null,
      "depth_end" : null,
      "cost" : 9679664.51
    }
  }, {
    "type" : "Feature",
    "geometry" : {
      "type" : "LineString",
      "coordinates" : [ [ 37.639538146115, 55.6968518286392 ], [ 37.638110674821775, 55.69716733424431 ] ]
    },
    "properties" : {
      "id" : "v1_net_36",
      "object_type" : "heat_network",
      "variant_id" : "v1",
      "start_node_id" : "17",
      "end_node_id" : "v_chamber_13",
      "flow_tph" : 20.63,
      "diameter" : 100,
      "length" : 96.36,
      "laying_method" : "base",
      "depth_start" : null,
      "depth_end" : null,
      "cost" : 8647960.55
    }
  }, {
    "type" : "Feature",
    "geometry" : {
      "type" : "Point",
      "coordinates" : [ 37.63855529938477, 55.697778551857105 ]
    },
    "properties" : {
      "id" : "v_chamber_1",
      "object_type" : "heat_chamber",
      "variant_id" : "v1",
      "diameter" : 125,
      "cost" : 3000000.0
    }
  }, {
    "type" : "Feature",
    "geometry" : {
      "type" : "Point",
      "coordinates" : [ 37.639824421061256, 55.69965142453975 ]
    },
    "properties" : {
      "id" : "v_chamber_2",
      "object_type" : "heat_chamber",
      "variant_id" : "v1",
      "diameter" : 200,
      "cost" : 3000000.0
    }
  }, {
    "type" : "Feature",
    "geometry" : {
      "type" : "Point",
      "coordinates" : [ 37.63863626091878, 55.69790362543136 ]
    },
    "properties" : {
      "id" : "v_chamber_7",
      "object_type" : "heat_chamber",
      "variant_id" : "v1",
      "diameter" : 125,
      "cost" : 3000000.0
    }
  }, {
    "type" : "Feature",
    "geometry" : {
      "type" : "Point",
      "coordinates" : [ 37.63846183901414, 55.69763853262273 ]
    },
    "properties" : {
      "id" : "v_chamber_10",
      "object_type" : "heat_chamber",
      "variant_id" : "v1",
      "diameter" : 125,
      "cost" : 3000000.0
    }
  }, {
    "type" : "Feature",
    "geometry" : {
      "type" : "Point",
      "coordinates" : [ 37.6384200336835, 55.69757256514314 ]
    },
    "properties" : {
      "id" : "v_chamber_12",
      "object_type" : "heat_chamber",
      "variant_id" : "v1",
      "diameter" : 200,
      "cost" : 3000000.0
    }
  }, {
    "type" : "Feature",
    "geometry" : {
      "type" : "Point",
      "coordinates" : [ 37.638110674821775, 55.69716733424431 ]
    },
    "properties" : {
      "id" : "v_chamber_13",
      "object_type" : "heat_chamber",
      "variant_id" : "v1",
      "diameter" : 100,
      "cost" : 3000000.0
    }
  }, {
    "type" : "Feature",
    "geometry" : null,
    "properties" : {
      "id" : "v1_summary",
      "object_type" : "variant_summary",
      "variant_id" : "v1",
      "rank" : 1,
      "construction_cost" : 4.405639752E8,
      "chamber_construction_cost" : 1.8E7,
      "existing_chamber_tie_in_count" : 4,
      "existing_chamber_tie_in_cost" : 2.0E7,
      "unconnected_penalty" : 0.0,
      "calculated_cost" : 4.405639752E8,
      "new_network_length" : 4080.37,
      "score" : 24.5769,
      "unconnected_oks_ids" : [ ]
    }
  } ]
}