{
  "type" : "FeatureCollection",
  "name" : "heat_network_result",
  "features" : [ {
    "type" : "Feature",
    "geometry" : {
      "type" : "LineString",
      "coordinates" : [ [ 37.6344054041544, 55.69948106445311 ], [ 37.6354170560464, 55.6986147317495 ] ]
    },
    "properties" : {
      "id" : "v1_net_1",
      "object_type" : "heat_network",
      "variant_id" : "v1",
      "start_node_id" : "1",
      "end_node_id" : "5",
      "flow_tph" : 24.87,
      "diameter" : 125,
      "length" : 115.5,
      "laying_method" : "base",
      "depth_start" : null,
      "depth_end" : null,
      "cost" : 1.123571356E7
    }
  }, {
    "type" : "Feature",
    "geometry" : {
      "type" : "LineString",
      "coordinates" : [ [ 37.6354170560464, 55.6986147317495 ], [ 37.6382803042186, 55.69795678628921 ] ]
    },
    "properties" : {
      "id" : "v1_net_2",
      "object_type" : "heat_network",
      "variant_id" : "v1",
      "start_node_id" : "5",
      "end_node_id" : "7",
      "flow_tph" : 24.87,
      "diameter" : 125,
      "length" : 194.31,
      "laying_method" : "base",
      "depth_start" : null,
      "depth_end" : null,
      "cost" : 1.890123757E7
    }
  }, {
    "type" : "Feature",
    "geometry" : {
      "type" : "LineString",
      "coordinates" : [ [ 37.638620068571065, 55.69787861072077 ], [ 37.6382803042186, 55.69795678628921 ] ]
    },
    "properties" : {
      "id" : "v1_net_3",
      "object_type" : "heat_network",
      "variant_id" : "v1",
      "start_node_id" : "net_126_278",
      "end_node_id" : "7",
      "flow_tph" : 24.87,
      "diameter" : 125,
      "length" : 23.06,
      "laying_method" : "base",
      "depth_start" : null,
      "depth_end" : null,
      "cost" : 2243326.19
    }
  }, {
    "type" : "Feature",
    "geometry" : {
      "type" : "LineString",
      "coordinates" : [ [ 37.6345829261805, 55.6998544638392 ], [ 37.6363818514204, 55.700155199014695 ] ]
    },
    "properties" : {
      "id" : "v1_net_4",
      "object_type" : "heat_network",
      "variant_id" : "v1",
      "start_node_id" : "2",
      "end_node_id" : "4",
      "flow_tph" : 18.76,
      "diameter" : 100,
      "length" : 117.92,
      "laying_method" : "base",
      "depth_start" : null,
      "depth_end" : null,
      "cost" : 1.058336E7
    }
  }, {
    "type" : "Feature",
    "geometry" : {
      "type" : "LineString",
      "coordinates" : [ [ 37.639795052706035, 55.699606897510265 ], [ 37.6363818514204, 55.700155199014695 ] ]
    },
    "properties" : {
      "id" : "v1_net_5",
      "object_type" : "heat_network",
      "variant_id" : "v1",
      "start_node_id" : "net_122_123",
      "end_node_id" : "4",
      "flow_tph" : 18.76,
      "diameter" : 100,
      "length" : 223.05,
      "laying_method" : "base",
      "depth_start" : null,
      "depth_end" : null,
      "cost" : 2.001836104E7
    }
  }, {
    "type" : "Feature",
    "geometry" : {
      "type" : "LineString",
      "coordinates" : [ [ 37.6332044989075, 55.699575075115 ], [ 37.6328466024688, 55.700275760196696 ] ]
    },
    "properties" : {
      "id" : "v1_net_6",
      "object_type" : "heat_network",
      "variant_id" : "v1",
      "start_node_id" : "11",
      "end_node_id" : "3",
      "flow_tph" : 29.42,
      "diameter" : 125,
      "length" : 81.17,
      "laying_method" : "base",
      "depth_start" : null,
      "depth_end" : null,
      "cost" : 7895548.16
    }
  }, {
    "type" : "Feature",
    "geometry" : {
      "type" : "LineString",
      "coordinates" : [ [ 37.6344054041544, 55.69948106445311 ], [ 37.6332044989075, 55.699575075115 ] ]
    },
    "properties" : {
      "id" : "v1_net_7",
      "object_type" : "heat_network",
      "variant_id" : "v1",
      "start_node_id" : "1",
      "end_node_id" : "11",
      "flow_tph" : 29.42,
      "diameter" : 125,
      "length" : 76.21,
      "laying_method" : "base",
      "depth_start" : null,
      "depth_end" : null,
      "cost" : 7412985.98
    }
  }, {
    "type" : "Feature",
    "geometry" : {
      "type" : "LineString",
      "coordinates" : [ [ 37.6344054041544, 55.69948106445311 ], [ 37.6354170560464, 55.6986147317495 ] ]
    },
    "properties" : {
      "id" : "v1_net_8",
      "object_type" : "heat_network",
      "variant_id" : "v1",
      "start_node_id" : "1",
      "end_node_id" : "5",
      "flow_tph" : 29.42,
      "diameter" : 125,
      "length" : 115.5,
      "laying_method" : "base",
      "depth_start" : null,
      "depth_end" : null,
      "cost" : 1.123571356E7
    }
  }, {
    "type" : "Feature",
    "geometry" : {
      "type" : "LineString",
      "coordinates" : [ [ 37.6354170560464, 55.6986147317495 ], [ 37.6382803042186, 55.69795678628921 ] ]
    },
    "properties" : {
      "id" : "v1_net_9",
      "object_type" : "heat_network",
      "variant_id" : "v1",
      "start_node_id" : "5",
      "end_node_id" : "7",
      "flow_tph" : 29.42,
      "diameter" : 125,
      "length" : 194.31,
      "laying_method" : "base",
      "depth_start" : null,
      "depth_end" : null,
      "cost" : 1.890123757E7
    }
  }, {
    "type" : "Feature",
    "geometry" : {
      "type" : "LineString",
      "coordinates" : [ [ 37.638620068571065, 55.69787861072077 ], [ 37.6382803042186, 55.69795678628921 ] ]
    },
    "properties" : {
      "id" : "v1_net_10",
      "object_type" : "heat_network",
      "variant_id" : "v1",
      "start_node_id" : "net_126_278",
      "end_node_id" : "7",
      "flow_tph" : 29.42,
      "diameter" : 125,
      "length" : 23.06,
      "laying_method" : "base",
      "depth_start" : null,
      "depth_end" : null,
      "cost" : 2243326.19
    }
  }, {
    "type" : "Feature",
    "geometry" : {
      "type" : "LineString",
      "coordinates" : [ [ 37.639795052706035, 55.699606897510265 ], [ 37.6363818514204, 55.700155199014695 ] ]
    },
    "properties" : {
      "id" : "v1_net_11",
      "object_type" : "heat_network",
      "variant_id" : "v1",
      "start_node_id" : "net_122_123",
      "end_node_id" : "4",
      "flow_tph" : 47.7,
      "diameter" : 150,
      "length" : 223.05,
      "laying_method" : "base",
      "depth_start" : null,
      "depth_end" : null,
      "cost" : 2.353341821E7
    }
  }, {
    "type" : "Feature",
    "geometry" : {
      "type" : "LineString",
      "coordinates" : [ [ 37.6354170560464, 55.6986147317495 ], [ 37.6382803042186, 55.69795678628921 ] ]
    },
    "properties" : {
      "id" : "v1_net_12",
      "object_type" : "heat_network",
      "variant_id" : "v1",
      "start_node_id" : "5",
      "end_node_id" : "7",
      "flow_tph" : 26.09,
      "diameter" : 125,
      "length" : 194.31,
      "laying_method" : "base",
      "depth_start" : null,
      "depth_end" : null,
      "cost" : 1.890123757E7
    }
  }, {
    "type" : "Feature",
    "geometry" : {
      "type" : "LineString",
      "coordinates" : [ [ 37.638620068571065, 55.69787861072077 ], [ 37.6382803042186, 55.69795678628921 ] ]
    },
    "properties" : {
      "id" : "v1_net_13",
      "object_type" : "heat_network",
      "variant_id" : "v1",
      "start_node_id" : "net_126_278",
      "end_node_id" : "7",
      "flow_tph" : 26.09,
      "diameter" : 125,
      "length" : 23.06,
      "laying_method" : "base",
      "depth_start" : null,
      "depth_end" : null,
      "cost" : 2243326.19
    }
  }, {
    "type" : "Feature",
    "geometry" : {
      "type" : "LineString",
      "coordinates" : [ [ 37.6344054041544, 55.69948106445311 ], [ 37.632012226474316, 55.70004826125506 ] ]
    },
    "properties" : {
      "id" : "v1_net_14",
      "object_type" : "heat_network",
      "variant_id" : "v1",
      "start_node_id" : "1",
      "end_node_id" : "6",
      "flow_tph" : 15.99,
      "diameter" : 125,
      "length" : 163.14,
      "laying_method" : "base",
      "depth_start" : null,
      "depth_end" : null,
      "cost" : 1.586905634E7
    }
  }, {
    "type" : "Feature",
    "geometry" : {
      "type" : "LineString",
      "coordinates" : [ [ 37.6344054041544, 55.69948106445311 ], [ 37.6354170560464, 55.6986147317495 ] ]
    },
    "properties" : {
      "id" : "v1_net_15",
      "object_type" : "heat_network",
      "variant_id" : "v1",
      "start_node_id" : "1",
      "end_node_id" : "5",
      "flow_tph" : 15.99,
      "diameter" : 125,
      "length" : 115.5,
      "laying_method" : "base",
      "depth_start" : null,
      "depth_end" : null,
      "cost" : 1.123571356E7
    }
  }, {
    "type" : "Feature",
    "geometry" : {
      "type" : "LineString",
      "coordinates" : [ [ 37.6354170560464, 55.6986147317495 ], [ 37.6382803042186, 55.69795678628921 ] ]
    },
    "properties" : {
      "id" : "v1_net_16",
      "object_type" : "heat_network",
      "variant_id" : "v1",
      "start_node_id" : "5",
      "end_node_id" : "7",
      "flow_tph" : 15.99,
      "diameter" : 125,
      "length" : 194.31,
      "laying_method" : "base",
      "depth_start" : null,
      "depth_end" : null,
      "cost" : 1.890123757E7
    }
  }, {
    "type" : "Feature",
    "geometry" : {
      "type" : "LineString",
      "coordinates" : [ [ 37.638620068571065, 55.69787861072077 ], [ 37.6382803042186, 55.69795678628921 ] ]
    },
    "properties" : {
      "id" : "v1_net_17",
      "object_type" : "heat_network",
      "variant_id" : "v1",
      "start_node_id" : "net_126_278",
      "end_node_id" : "7",
      "flow_tph" : 15.99,
      "diameter" : 125,
      "length" : 23.06,
      "laying_method" : "base",
      "depth_start" : null,
      "depth_end" : null,
      "cost" : 2243326.19
    }
  }, {
    "type" : "Feature",
    "geometry" : {
      "type" : "LineString",
      "coordinates" : [ [ 37.638620068571065, 55.69787861072077 ], [ 37.6382803042186, 55.69795678628921 ] ]
    },
    "properties" : {
      "id" : "v1_net_18",
      "object_type" : "heat_network",
      "variant_id" : "v1",
      "start_node_id" : "net_126_278",
      "end_node_id" : "7",
      "flow_tph" : 27.82,
      "diameter" : 125,
      "length" : 23.06,
      "laying_method" : "base",
      "depth_start" : null,
      "depth_end" : null,
      "cost" : 2243326.19
    }
  }, {
    "type" : "Feature",
    "geometry" : {
      "type" : "LineString",
      "coordinates" : [ [ 37.6344054041544, 55.69948106445311 ], [ 37.632202633606305, 55.70031441743034 ] ]
    },
    "properties" : {
      "id" : "v1_net_19",
      "object_type" : "heat_network",
      "variant_id" : "v1",
      "start_node_id" : "1",
      "end_node_id" : "8",
      "flow_tph" : 18.03,
      "diameter" : 125,
      "length" : 166.65,
      "laying_method" : "base",
      "depth_start" : null,
      "depth_end" : null,
      "cost" : 1.62112961E7
    }
  }, {
    "type" : "Feature",
    "geometry" : {
      "type" : "LineString",
      "coordinates" : [ [ 37.6344054041544, 55.69948106445311 ], [ 37.6354170560464, 55.6986147317495 ] ]
    },
    "properties" : {
      "id" : "v1_net_20",
      "object_type" : "heat_network",
      "variant_id" : "v1",
      "start_node_id" : "1",
      "end_node_id" : "5",
      "flow_tph" : 18.03,
      "diameter" : 125,
      "length" : 115.5,
      "laying_method" : "base",
      "depth_start" : null,
      "depth_end" : null,
      "cost" : 1.123571356E7
    }
  }, {
    "type" : "Feature",
    "geometry" : {
      "type" : "LineString",
      "coordinates" : [ [ 37.6354170560464, 55.6986147317495 ], [ 37.6382803042186, 55.69795678628921 ] ]
    },
    "properties" : {
      "id" : "v1_net_21",
      "object_type" : "heat_network",
      "variant_id" : "v1",
      "start_node_id" : "5",
      "end_node_id" : "7",
      "flow_tph" : 18.03,
      "diameter" : 125,
      "length" : 194.31,
      "laying_method" : "base",
      "depth_start" : null,
      "depth_end" : null,
      "cost" : 1.890123757E7
    }
  }, {
    "type" : "Feature",
    "geometry" : {
      "type" : "LineString",
      "coordinates" : [ [ 37.638620068571065, 55.69787861072077 ], [ 37.6382803042186, 55.69795678628921 ] ]
    },
    "properties" : {
      "id" : "v1_net_22",
      "object_type" : "heat_network",
      "variant_id" : "v1",
      "start_node_id" : "net_126_278",
      "end_node_id" : "7",
      "flow_tph" : 18.03,
      "diameter" : 125,
      "length" : 23.06,
      "laying_method" : "base",
      "depth_start" : null,
      "depth_end" : null,
      "cost" : 2243326.19
    }
  }, {
    "type" : "Feature",
    "geometry" : {
      "type" : "LineString",
      "coordinates" : [ [ 37.6360932402107, 55.697296569490895 ], [ 37.6344462678961, 55.6972523917077 ] ]
    },
    "properties" : {
      "id" : "v1_net_23",
      "object_type" : "heat_network",
      "variant_id" : "v1",
      "start_node_id" : "10",
      "end_node_id" : "9",
      "flow_tph" : 34.53,
      "diameter" : 125,
      "length" : 103.65,
      "laying_method" : "base",
      "depth_start" : null,
      "depth_end" : null,
      "cost" : 1.008212336E7
    }
  }, {
    "type" : "Feature",
    "geometry" : {
      "type" : "LineString",
      "coordinates" : [ [ 37.6360932402107, 55.697296569490895 ], [ 37.6382803042186, 55.69795678628921 ] ]
    },
    "properties" : {
      "id" : "v1_net_24",
      "object_type" : "heat_network",
      "variant_id" : "v1",
      "start_node_id" : "10",
      "end_node_id" : "7",
      "flow_tph" : 34.53,
      "diameter" : 125,
      "length" : 155.88,
      "laying_method" : "base",
      "depth_start" : null,
      "depth_end" : null,
      "cost" : 1.516365699E7
    }
  }, {
    "type" : "Feature",
    "geometry" : {
      "type" : "LineString",
      "coordinates" : [ [ 37.638620068571065, 55.69787861072077 ], [ 37.6382803042186, 55.69795678628921 ] ]
    },
    "properties" : {
      "id" : "v1_net_25",
      "object_type" : "heat_network",
      "variant_id" : "v1",
      "start_node_id" : "net_126_278",
      "end_node_id" : "7",
      "flow_tph" : 34.53,
      "diameter" : 125,
      "length" : 23.06,
      "laying_method" : "base",
      "depth_start" : null,
      "depth_end" : null,
      "cost" : 2243326.19
    }
  }, {
    "type" : "Feature",
    "geometry" : {
      "type" : "LineString",
      "coordinates" : [ [ 37.6360932402107, 55.697296569490895 ], [ 37.6382803042186, 55.69795678628921 ] ]
    },
    "properties" : {
      "id" : "v1_net_26",
      "object_type" : "heat_network",
      "variant_id" : "v1",
      "start_node_id" : "10",
      "end_node_id" : "7",
      "flow_tph" : 33.14,
      "diameter" : 125,
      "length" : 155.88,
      "laying_method" : "base",
      "depth_start" : null,
      "depth_end" : null,
      "cost" : 1.516365699E7
    }
  }, {
    "type" : "Feature",
    "geometry" : {
      "type" : "LineString",
      "coordinates" : [ [ 37.638620068571065, 55.69787861072077 ], [ 37.6382803042186, 55.69795678628921 ] ]
    },
    "properties" : {
      "id" : "v1_net_27",
      "object_type" : "heat_network",
      "variant_id" : "v1",
      "start_node_id" : "net_126_278",
      "end_node_id" : "7",
      "flow_tph" : 33.14,
      "diameter" : 125,
      "length" : 23.06,
      "laying_method" : "base",
      "depth_start" : null,
      "depth_end" : null,
      "cost" : 2243326.19
    }
  }, {
    "type" : "Feature",
    "geometry" : {
      "type" : "LineString",
      "coordinates" : [ [ 37.6344054041544, 55.69948106445311 ], [ 37.6332044989075, 55.699575075115 ] ]
    },
    "properties" : {
      "id" : "v1_net_28",
      "object_type" : "heat_network",
      "variant_id" : "v1",
      "start_node_id" : "1",
      "end_node_id" : "11",
      "flow_tph" : 4.08,
      "diameter" : 100,
      "length" : 76.21,
      "laying_method" : "base",
      "depth_start" : null,
      "depth_end" : null,
      "cost" : 6839379.76
    }
  }, {
    "type" : "Feature",
    "geometry" : {
      "type" : "LineString",
      "coordinates" : [ [ 37.6344054041544, 55.69948106445311 ], [ 37.6354170560464, 55.6986147317495 ] ]
    },
    "properties" : {
      "id" : "v1_net_29",
      "object_type" : "heat_network",
      "variant_id" : "v1",
      "start_node_id" : "1",
      "end_node_id" : "5",
      "flow_tph" : 4.08,
      "diameter" : 100,
      "length" : 115.5,
      "laying_method" : "base",
      "depth_start" : null,
      "depth_end" : null,
      "cost" : 1.036631016E7
    }
  }, {
    "type" : "Feature",
    "geometry" : {
      "type" : "LineString",
      "coordinates" : [ [ 37.6354170560464, 55.6986147317495 ], [ 37.6382803042186, 55.69795678628921 ] ]
    },
    "properties" : {
      "id" : "v1_net_30",
      "object_type" : "heat_network",
      "variant_id" : "v1",
      "start_node_id" : "5",
      "end_node_id" : "7",
      "flow_tph" : 4.08,
      "diameter" : 100,
      "length" : 194.31,
      "laying_method" : "base",
      "depth_start" : null,
      "depth_end" : null,
      "cost" : 1.743868691E7
    }
  }, {
    "type" : "Feature",
    "geometry" : {
      "type" : "LineString",
      "coordinates" : [ [ 37.638620068571065, 55.69787861072077 ], [ 37.6382803042186, 55.69795678628921 ] ]
    },
    "properties" : {
      "id" : "v1_net_31",
      "object_type" : "heat_network",
      "variant_id" : "v1",
      "start_node_id" : "net_126_278",
      "end_node_id" : "7",
      "flow_tph" : 4.08,
      "diameter" : 100,
      "length" : 23.06,
      "laying_method" : "base",
      "depth_start" : null,
      "depth_end" : null,
      "cost" : 2069740.83
    }
  }, {
    "type" : "Feature",
    "geometry" : {
      "type" : "LineString",
      "coordinates" : [ [ 37.63859847880592, 55.69784525777 ], [ 37.63313932211122, 55.69865306825248 ] ]
    },
    "properties" : {
      "id" : "v1_net_32",
      "object_type" : "heat_network",
      "variant_id" : "v1",
      "start_node_id" : "net_126_280",
      "end_node_id" : "12",
      "flow_tph" : 40.0,
      "diameter" : 125,
      "length" : 354.74,
      "laying_method" : "base",
      "depth_start" : null,
      "depth_end" : null,
      "cost" : 3.450714263E7
    }
  }, {
    "type" : "Feature",
    "geometry" : {
      "type" : "LineString",
      "coordinates" : [ [ 37.6360932402107, 55.697296569490895 ], [ 37.6339010562985, 55.697722607233096 ] ]
    },
    "properties" : {
      "id" : "v1_net_33",
      "object_type" : "heat_network",
      "variant_id" : "v1",
      "start_node_id" : "10",
      "end_node_id" : "13",
      "flow_tph" : 19.77,
      "diameter" : 100,
      "length" : 145.73,
      "laying_method" : "base",
      "depth_start" : null,
      "depth_end" : null,
      "cost" : 1.307903158E7
    }
  }, {
    "type" : "Feature",
    "geometry" : {
      "type" : "LineString",
      "coordinates" : [ [ 37.6360932402107, 55.697296569490895 ], [ 37.6382803042186, 55.69795678628921 ] ]
    },
    "properties" : {
      "id" : "v1_net_34",
      "object_type" : "heat_network",
      "variant_id" : "v1",
      "start_node_id" : "10",
      "end_node_id" : "7",
      "flow_tph" : 19.77,
      "diameter" : 100,
      "length" : 155.88,
      "laying_method" : "base",
      "depth_start" : null,
      "depth_end" : null,
      "cost" : 1.399031496E7
    }
  }, {
    "type" : "Feature",
    "geometry" : {
      "type" : "LineString",
      "coordinates" : [ [ 37.638620068571065, 55.69787861072077 ], [ 37.6382803042186, 55.69795678628921 ] ]
    },
    "properties" : {
      "id" : "v1_net_35",
      "object_type" : "heat_network",
      "variant_id" : "v1",
      "start_node_id" : "net_126_278",
      "end_node_id" : "7",
      "flow_tph" : 19.77,
      "diameter" : 100,
      "length" : 23.06,
      "laying_method" : "base",
      "depth_start" : null,
      "depth_end" : null,
      "cost" : 2069740.83
    }
  }, {
    "type" : "Feature",
    "geometry" : {
      "type" : "LineString",
      "coordinates" : [ [ 37.6360932402107, 55.697296569490895 ], [ 37.6337524411436, 55.6974723292097 ] ]
    },
    "properties" : {
      "id" : "v1_net_36",
      "object_type" : "heat_network",
      "variant_id" : "v1",
      "start_node_id" : "10",
      "end_node_id" : "14",
      "flow_tph" : 19.73,
      "diameter" : 100,
      "length" : 148.44,
      "laying_method" : "base",
      "depth_start" : null,
      "depth_end" : null,
      "cost" : 1.332194165E7
    }
  }, {
    "type" : "Feature",
    "geometry" : {
      "type" : "LineString",
      "coordinates" : [ [ 37.6360932402107, 55.697296569490895 ], [ 37.6382803042186, 55.69795678628921 ] ]
    },
    "properties" : {
      "id" : "v1_net_37",
      "object_type" : "heat_network",
      "variant_id" : "v1",
      "start_node_id" : "10",
      "end_node_id" : "7",
      "flow_tph" : 19.73,
      "diameter" : 100,
      "length" : 155.88,
      "laying_method" : "base",
      "depth_start" : null,
      "depth_end" : null,
      "cost" : 1.399031496E7
    }
  }, {
    "type" : "Feature",
    "geometry" : {
      "type" : "LineString",
      "coordinates" : [ [ 37.638620068571065, 55.69787861072077 ], [ 37.6382803042186, 55.69795678628921 ] ]
    },
    "properties" : {
      "id" : "v1_net_38",
      "object_type" : "heat_network",
      "variant_id" : "v1",
      "start_node_id" : "net_126_278",
      "end_node_id" : "7",
      "flow_tph" : 19.73,
      "diameter" : 100,
      "length" : 23.06,
      "laying_method" : "base",
      "depth_start" : null,
      "depth_end" : null,
      "cost" : 2069740.83
    }
  }, {
    "type" : "Feature",
    "geometry" : {
      "type" : "LineString",
      "coordinates" : [ [ 37.6337524411436, 55.6974723292097 ], [ 37.63203443949898, 55.69704568983144 ] ]
    },
    "properties" : {
      "id" : "v1_net_39",
      "object_type" : "heat_network",
      "variant_id" : "v1",
      "start_node_id" : "14",
      "end_node_id" : "15",
      "flow_tph" : 31.89,
      "diameter" : 125,
      "length" : 117.97,
      "laying_method" : "base",
      "depth_start" : null,
      "depth_end" : null,
      "cost" : 1.147580001E7
    }
  }, {
    "type" : "Feature",
    "geometry" : {
      "type" : "LineString",
      "coordinates" : [ [ 37.6360932402107, 55.697296569490895 ], [ 37.6337524411436, 55.6974723292097 ] ]
    },
    "properties" : {
      "id" : "v1_net_40",
      "object_type" : "heat_network",
      "variant_id" : "v1",
      "start_node_id" : "10",
      "end_node_id" : "14",
      "flow_tph" : 31.89,
      "diameter" : 125,
      "length" : 148.44,
      "laying_method" : "base",
      "depth_start" : null,
      "depth_end" : null,
      "cost" : 1.443922844E7
    }
  }, {
    "type" : "Feature",
    "geometry" : {
      "type" : "LineString",
      "coordinates" : [ [ 37.6360932402107, 55.697296569490895 ], [ 37.6382803042186, 55.69795678628921 ] ]
    },
    "properties" : {
      "id" : "v1_net_41",
      "object_type" : "heat_network",
      "variant_id" : "v1",
      "start_node_id" : "10",
      "end_node_id" : "7",
      "flow_tph" : 31.89,
      "diameter" : 125,
      "length" : 155.88,
      "laying_method" : "base",
      "depth_start" : null,
      "depth_end" : null,
      "cost" : 1.516365699E7
    }
  }, {
    "type" : "Feature",
    "geometry" : {
      "type" : "LineString",
      "coordinates" : [ [ 37.638620068571065, 55.69787861072077 ], [ 37.6382803042186, 55.69795678628921 ] ]
    },
    "properties" : {
      "id" : "v1_net_42",
      "object_type" : "heat_network",
      "variant_id" : "v1",
      "start_node_id" : "net_126_278",
      "end_node_id" : "7",
      "flow_tph" : 31.89,
      "diameter" : 125,
      "length" : 23.06,
      "laying_method" : "base",
      "depth_start" : null,
      "depth_end" : null,
      "cost" : 2243326.19
    }
  }, {
    "type" : "Feature",
    "geometry" : {
      "type" : "LineString",
      "coordinates" : [ [ 37.63957055801799, 55.69866855213194 ], [ 37.64076446632709, 55.6984073918225 ] ]
    },
    "properties" : {
      "id" : "v1_net_43",
      "object_type" : "heat_network",
      "variant_id" : "v1",
      "start_node_id" : "net_124_233",
      "end_node_id" : "16",
      "flow_tph" : 76.27,
      "diameter" : 200,
      "length" : 80.48,
      "laying_method" : "base",
      "depth_start" : null,
      "depth_end" : null,
      "cost" : 9679664.51
    }
  }, {
    "type" : "Feature",
    "geometry" : {
      "type" : "LineString",
      "coordinates" : [ [ 37.63812245625591, 55.6971836120729 ], [ 37.639538146115, 55.6968518286392 ] ]
    },
    "properties" : {
      "id" : "v1_net_44",
      "object_type" : "heat_network",
      "variant_id" : "v1",
      "start_node_id" : "net_129_405",
      "end_node_id" : "17",
      "flow_tph" : 20.63,
      "diameter" : 100,
      "length" : 96.35,
      "laying_method" : "base",
      "depth_start" : null,
      "depth_end" : null,
      "cost" : 8647105.31
    }
  }, {
    "type" : "Feature",
    "geometry" : {
      "type" : "Point",
      "coordinates" : [ 37.638620068571065, 55.69787861072077 ]
    },
    "properties" : {
      "id" : "v1_chamber_1",
      "object_type" : "heat_chamber",
      "variant_id" : "v1",
      "diameter" : 125,
      "cost" : 3000000.0
    }
  }, {
    "type" : "Feature",
    "geometry" : {
      "type" : "Point",
      "coordinates" : [ 37.639795052706035, 55.699606897510265 ]
    },
    "properties" : {
      "id" : "v1_chamber_2",
      "object_type" : "heat_chamber",
      "variant_id" : "v1",
      "diameter" : 100,
      "cost" : 3000000.0
    }
  }, {
    "type" : "Feature",
    "geometry" : {
      "type" : "Point",
      "coordinates" : [ 37.638620068571065, 55.69787861072077 ]
    },
    "properties" : {
      "id" : "v1_chamber_3",
      "object_type" : "heat_chamber",
      "variant_id" : "v1",
      "diameter" : 125,
      "cost" : 3000000.0
    }
  }, {
    "type" : "Feature",
    "geometry" : {
      "type" : "Point",
      "coordinates" : [ 37.639795052706035, 55.699606897510265 ]
    },
    "properties" : {
      "id" : "v1_chamber_4",
      "object_type" : "heat_chamber",
      "variant_id" : "v1",
      "diameter" : 150,
      "cost" : 3000000.0
    }
  }, {
    "type" : "Feature",
    "geometry" : {
      "type" : "Point",
      "coordinates" : [ 37.638620068571065, 55.69787861072077 ]
    },
    "properties" : {
      "id" : "v1_chamber_5",
      "object_type" : "heat_chamber",
      "variant_id" : "v1",
      "diameter" : 125,
      "cost" : 3000000.0
    }
  }, {
    "type" : "Feature",
    "geometry" : {
      "type" : "Point",
      "coordinates" : [ 37.638620068571065, 55.69787861072077 ]
    },
    "properties" : {
      "id" : "v1_chamber_6",
      "object_type" : "heat_chamber",
      "variant_id" : "v1",
      "diameter" : 125,
      "cost" : 3000000.0
    }
  }, {
    "type" : "Feature",
    "geometry" : {
      "type" : "Point",
      "coordinates" : [ 37.638620068571065, 55.69787861072077 ]
    },
    "properties" : {
      "id" : "v1_chamber_7",
      "object_type" : "heat_chamber",
      "variant_id" : "v1",
      "diameter" : 125,
      "cost" : 3000000.0
    }
  }, {
    "type" : "Feature",
    "geometry" : {
      "type" : "Point",
      "coordinates" : [ 37.638620068571065, 55.69787861072077 ]
    },
    "properties" : {
      "id" : "v1_chamber_8",
      "object_type" : "heat_chamber",
      "variant_id" : "v1",
      "diameter" : 125,
      "cost" : 3000000.0
    }
  }, {
    "type" : "Feature",
    "geometry" : {
      "type" : "Point",
      "coordinates" : [ 37.638620068571065, 55.69787861072077 ]
    },
    "properties" : {
      "id" : "v1_chamber_9",
      "object_type" : "heat_chamber",
      "variant_id" : "v1",
      "diameter" : 125,
      "cost" : 3000000.0
    }
  }, {
    "type" : "Feature",
    "geometry" : {
      "type" : "Point",
      "coordinates" : [ 37.638620068571065, 55.69787861072077 ]
    },
    "properties" : {
      "id" : "v1_chamber_10",
      "object_type" : "heat_chamber",
      "variant_id" : "v1",
      "diameter" : 125,
      "cost" : 3000000.0
    }
  }, {
    "type" : "Feature",
    "geometry" : {
      "type" : "Point",
      "coordinates" : [ 37.638620068571065, 55.69787861072077 ]
    },
    "properties" : {
      "id" : "v1_chamber_11",
      "object_type" : "heat_chamber",
      "variant_id" : "v1",
      "diameter" : 100,
      "cost" : 3000000.0
    }
  }, {
    "type" : "Feature",
    "geometry" : {
      "type" : "Point",
      "coordinates" : [ 37.63859847880592, 55.69784525777 ]
    },
    "properties" : {
      "id" : "v1_chamber_12",
      "object_type" : "heat_chamber",
      "variant_id" : "v1",
      "diameter" : 125,
      "cost" : 3000000.0
    }
  }, {
    "type" : "Feature",
    "geometry" : {
      "type" : "Point",
      "coordinates" : [ 37.638620068571065, 55.69787861072077 ]
    },
    "properties" : {
      "id" : "v1_chamber_13",
      "object_type" : "heat_chamber",
      "variant_id" : "v1",
      "diameter" : 100,
      "cost" : 3000000.0
    }
  }, {
    "type" : "Feature",
    "geometry" : {
      "type" : "Point",
      "coordinates" : [ 37.638620068571065, 55.69787861072077 ]
    },
    "properties" : {
      "id" : "v1_chamber_14",
      "object_type" : "heat_chamber",
      "variant_id" : "v1",
      "diameter" : 100,
      "cost" : 3000000.0
    }
  }, {
    "type" : "Feature",
    "geometry" : {
      "type" : "Point",
      "coordinates" : [ 37.638620068571065, 55.69787861072077 ]
    },
    "properties" : {
      "id" : "v1_chamber_15",
      "object_type" : "heat_chamber",
      "variant_id" : "v1",
      "diameter" : 125,
      "cost" : 3000000.0
    }
  }, {
    "type" : "Feature",
    "geometry" : {
      "type" : "Point",
      "coordinates" : [ 37.63957055801799, 55.69866855213194 ]
    },
    "properties" : {
      "id" : "v1_chamber_16",
      "object_type" : "heat_chamber",
      "variant_id" : "v1",
      "diameter" : 200,
      "cost" : 3000000.0
    }
  }, {
    "type" : "Feature",
    "geometry" : {
      "type" : "Point",
      "coordinates" : [ 37.63812245625591, 55.6971836120729 ]
    },
    "properties" : {
      "id" : "v1_chamber_17",
      "object_type" : "heat_chamber",
      "variant_id" : "v1",
      "diameter" : 100,
      "cost" : 3000000.0
    }
  }, {
    "type" : "Feature",
    "geometry" : null,
    "properties" : {
      "id" : "v1_summary",
      "object_type" : "variant_summary",
      "variant_id" : "v1",
      "rank" : 1,
      "construction_cost" : 5.4172024135E8,
      "chamber_construction_cost" : 5.1E7,
      "existing_chamber_tie_in_count" : 0,
      "existing_chamber_tie_in_cost" : 0.0,
      "unconnected_penalty" : 0.0,
      "calculated_cost" : 5.4172024135E8,
      "new_network_length" : 5122.71,
      "score" : 30.5363,
      "unconnected_oks_ids" : [ ]
    }
  } ]
}